*******************************************************************************
Ephemeris / WWW_USER Mon Jul 15 19:03:07 2024 Pasadena, USA      / Horizons    
*******************************************************************************
Target body name: (2018 RC)                       {source: JPL#21}
Center body name: Earth (399)                     {source: DE441}
Center-site name: Gemini South Obs., Cerro Pachon
*******************************************************************************
Start time      : A.D. 2018-Nov-14 23:25:00.0000 UT      
Stop  time      : A.D. 2018-Nov-15 09:29:00.0000 UT      
Step-size       : 1 minutes
*******************************************************************************
Target pole/equ : undefined
Target radii    : undefined                                                    
Center geodetic : 289.2634, -30.2406227, 2.71233  {E-lon(deg),Lat(deg),Alt(km)}
Center cylindric: 289.2634,5517.21435,-3194.81213 {E-lon(deg),Dxy(km),Dz(km)}
Center pole/equ : ITRF93                          {East-longitude positive}
Center radii    : 6378.137, 6378.137, 6356.752 km {Equator_a, b, pole_c}       
Target primary  : Sun
Vis. interferer : MOON (R_eq= 1737.400) km        {source: DE441}
Rel. light bend : Sun                             {source: DE441}
Rel. lght bnd GM: 1.3271E+11 km^3/s^2                                          
Small-body perts: Yes                             {source: SB441-N16}
Atmos refraction: NO (AIRLESS)
RA format       : HMS
Time format     : CAL 
Calendar mode   : Mixed Julian/Gregorian
RTS-only print  : NO       
EOP file        : eop.240715.p241008                                           
EOP coverage    : DATA-BASED 1962-JAN-20 TO 2024-JUL-15. PREDICTS-> 2024-OCT-07
Units conversion: 1 au= 149597870.700 km, c= 299792.458 km/s, 1 day= 86400.0 s 
Table cut-offs 1: Elevation (-90.0deg=NO ),Airmass (>38.000=NO), Daylight (YES)
Table cut-offs 2: Solar elongation (  0.0,180.0=NO ),Local Hour Angle( 0.0=NO )
Table cut-offs 3: RA/DEC angular rate (     0.0=NO )                           
*******************************************************************************
Initial IAU76/J2000 heliocentric ecliptic osculating elements (au, days, deg.):
  EPOCH=  2458369.5 ! 2018-Sep-08.00 (TDB)         Residual RMS= .84866        
   EC= .2426621660028976   QR= .647471518312811    TP= 2458473.8617576878      
   OM= 346.8893436915528   W=  145.8737085184167   IN= 1.612045057594462       
  Equivalent ICRF heliocentric cartesian coordinates (au, au/d):
   X= 9.781363708094483E-01  Y=-2.377942828764822E-01  Z=-1.040448782093900E-01
  VX= 1.501011538102481E-03 VY= 1.393070215815854E-02 VZ= 6.509326736836346E-03
Asteroid physical parameters (km, seconds, rotational period in hours):        
   GM= n.a.                RAD= n.a.               ROTPER= .16548              
   H= 24.93                G= .150                 B-V= n.a.                   
                           ALBEDO= n.a.            STYP= n.a.                  
*******************************************************************************
 Date__(UT)__HR:MN     R.A._________(ICRF)_________DEC
******************************************************
$$SOE
 2018-Nov-15 01:28  m  13 22 01.851656 -03 51 47.81078
 2018-Nov-15 01:29  m  13 22 01.916257 -03 51 48.44779
 2018-Nov-15 01:30  m  13 22 01.980869 -03 51 49.08485
 2018-Nov-15 01:31  m  13 22 02.045491 -03 51 49.72194
 2018-Nov-15 01:32  m  13 22 02.110122 -03 51 50.35908
 2018-Nov-15 01:33  m  13 22 02.174764 -03 51 50.99627
 2018-Nov-15 01:34  m  13 22 02.239415 -03 51 51.63349
 2018-Nov-15 01:35  m  13 22 02.304076 -03 51 52.27076
 2018-Nov-15 01:36  m  13 22 02.368747 -03 51 52.90807
 2018-Nov-15 01:37  m  13 22 02.433427 -03 51 53.54542
 2018-Nov-15 01:38  m  13 22 02.498116 -03 51 54.18281
 2018-Nov-15 01:39  m  13 22 02.562814 -03 51 54.82025
 2018-Nov-15 01:40  m  13 22 02.627521 -03 51 55.45773
 2018-Nov-15 01:41  m  13 22 02.692236 -03 51 56.09525
 2018-Nov-15 01:42  m  13 22 02.756961 -03 51 56.73282
 2018-Nov-15 01:43  m  13 22 02.821693 -03 51 57.37043
 2018-Nov-15 01:44  m  13 22 02.886434 -03 51 58.00808
 2018-Nov-15 01:45  m  13 22 02.951184 -03 51 58.64578
 2018-Nov-15 01:46  m  13 22 03.015941 -03 51 59.28351
 2018-Nov-15 01:47  m  13 22 03.080706 -03 51 59.92129
 2018-Nov-15 01:48  m  13 22 03.145479 -03 52 00.55912
 2018-Nov-15 01:49  m  13 22 03.210259 -03 52 01.19699
 2018-Nov-15 01:50  m  13 22 03.275047 -03 52 01.83489
 2018-Nov-15 01:51  m  13 22 03.339843 -03 52 02.47285
 2018-Nov-15 01:52  m  13 22 03.404645 -03 52 03.11084
 2018-Nov-15 01:53  m  13 22 03.469454 -03 52 03.74888
 2018-Nov-15 01:54  m  13 22 03.534271 -03 52 04.38697
 2018-Nov-15 01:55  m  13 22 03.599094 -03 52 05.02509
 2018-Nov-15 01:56  m  13 22 03.663923 -03 52 05.66326
 2018-Nov-15 01:57  m  13 22 03.728760 -03 52 06.30147
 2018-Nov-15 01:58  m  13 22 03.793602 -03 52 06.93973
 2018-Nov-15 01:59  m  13 22 03.858450 -03 52 07.57803
 2018-Nov-15 02:00  m  13 22 03.923305 -03 52 08.21637
 2018-Nov-15 02:01  m  13 22 03.988165 -03 52 08.85475
 2018-Nov-15 02:02  m  13 22 04.053032 -03 52 09.49318
 2018-Nov-15 02:03  m  13 22 04.117903 -03 52 10.13165
 2018-Nov-15 02:04  m  13 22 04.182780 -03 52 10.77017
 2018-Nov-15 02:05  m  13 22 04.247663 -03 52 11.40873
 2018-Nov-15 02:06  m  13 22 04.312550 -03 52 12.04733
 2018-Nov-15 02:07  m  13 22 04.377443 -03 52 12.68597
 2018-Nov-15 02:08  m  13 22 04.442340 -03 52 13.32466
 2018-Nov-15 02:09  m  13 22 04.507242 -03 52 13.96340
 2018-Nov-15 02:10  m  13 22 04.572149 -03 52 14.60217
 2018-Nov-15 02:11  m  13 22 04.637060 -03 52 15.24099
 2018-Nov-15 02:12  m  13 22 04.701975 -03 52 15.87985
 2018-Nov-15 02:13  m  13 22 04.766895 -03 52 16.51876
 2018-Nov-15 02:14  m  13 22 04.831818 -03 52 17.15771
 2018-Nov-15 02:15  m  13 22 04.896745 -03 52 17.79671
 2018-Nov-15 02:16  m  13 22 04.961676 -03 52 18.43574
 2018-Nov-15 02:17  m  13 22 05.026611 -03 52 19.07482
 2018-Nov-15 02:18  m  13 22 05.091548 -03 52 19.71395
 2018-Nov-15 02:19  m  13 22 05.156489 -03 52 20.35312
 2018-Nov-15 02:20  m  13 22 05.221434 -03 52 20.99233
 2018-Nov-15 02:21  m  13 22 05.286381 -03 52 21.63158
 2018-Nov-15 02:22  m  13 22 05.351331 -03 52 22.27088
 2018-Nov-15 02:23  m  13 22 05.416283 -03 52 22.91022
 2018-Nov-15 02:24  m  13 22 05.481238 -03 52 23.54961
 2018-Nov-15 02:25  m  13 22 05.546195 -03 52 24.18904
 2018-Nov-15 02:26  m  13 22 05.611155 -03 52 24.82851
 2018-Nov-15 02:27  m  13 22 05.676117 -03 52 25.46803
 2018-Nov-15 02:28  m  13 22 05.741080 -03 52 26.10759
 2018-Nov-15 02:29  m  13 22 05.806046 -03 52 26.74720
 2018-Nov-15 02:30  m  13 22 05.871013 -03 52 27.38684
 2018-Nov-15 02:31  m  13 22 05.935981 -03 52 28.02654
 2018-Nov-15 02:32  m  13 22 06.000951 -03 52 28.66627
 2018-Nov-15 02:33  m  13 22 06.065922 -03 52 29.30605
 2018-Nov-15 02:34  m  13 22 06.130894 -03 52 29.94587
 2018-Nov-15 02:35  m  13 22 06.195867 -03 52 30.58574
 2018-Nov-15 02:36  m  13 22 06.260841 -03 52 31.22565
 2018-Nov-15 02:37  m  13 22 06.325815 -03 52 31.86560
 2018-Nov-15 02:38  m  13 22 06.390790 -03 52 32.50560
 2018-Nov-15 02:39  m  13 22 06.455765 -03 52 33.14564
 2018-Nov-15 02:40  m  13 22 06.520740 -03 52 33.78573
 2018-Nov-15 02:41  m  13 22 06.585716 -03 52 34.42585
 2018-Nov-15 02:42  m  13 22 06.650691 -03 52 35.06603
 2018-Nov-15 02:43  m  13 22 06.715666 -03 52 35.70624
 2018-Nov-15 02:44  m  13 22 06.780640 -03 52 36.34650
 2018-Nov-15 02:45  m  13 22 06.845614 -03 52 36.98680
 2018-Nov-15 02:46  m  13 22 06.910588 -03 52 37.62715
 2018-Nov-15 02:47  m  13 22 06.975560 -03 52 38.26754
 2018-Nov-15 02:48  m  13 22 07.040531 -03 52 38.90797
 2018-Nov-15 02:49  m  13 22 07.105502 -03 52 39.54845
 2018-Nov-15 02:50  m  13 22 07.170471 -03 52 40.18897
 2018-Nov-15 02:51  m  13 22 07.235438 -03 52 40.82953
 2018-Nov-15 02:52  m  13 22 07.300404 -03 52 41.47014
 2018-Nov-15 02:53  m  13 22 07.365368 -03 52 42.11079
 2018-Nov-15 02:54  m  13 22 07.430331 -03 52 42.75149
 2018-Nov-15 02:55  m  13 22 07.495291 -03 52 43.39223
 2018-Nov-15 02:56  m  13 22 07.560249 -03 52 44.03301
 2018-Nov-15 02:57  m  13 22 07.625205 -03 52 44.67383
 2018-Nov-15 02:58  m  13 22 07.690158 -03 52 45.31470
 2018-Nov-15 02:59  m  13 22 07.755109 -03 52 45.95561
 2018-Nov-15 03:00  m  13 22 07.820057 -03 52 46.59657
 2018-Nov-15 03:01  m  13 22 07.885003 -03 52 47.23757
 2018-Nov-15 03:02  m  13 22 07.949945 -03 52 47.87861
 2018-Nov-15 03:03  m  13 22 08.014884 -03 52 48.51969
 2018-Nov-15 03:04  m  13 22 08.079819 -03 52 49.16082
 2018-Nov-15 03:05  m  13 22 08.144752 -03 52 49.80199
 2018-Nov-15 03:06  m  13 22 08.209680 -03 52 50.44321
 2018-Nov-15 03:07  m  13 22 08.274605 -03 52 51.08447
 2018-Nov-15 03:08  m  13 22 08.339526 -03 52 51.72577
 2018-Nov-15 03:09  m  13 22 08.404443 -03 52 52.36712
 2018-Nov-15 03:10  m  13 22 08.469356 -03 52 53.00850
 2018-Nov-15 03:11  m  13 22 08.534264 -03 52 53.64993
 2018-Nov-15 03:12  m  13 22 08.599168 -03 52 54.29141
 2018-Nov-15 03:13  m  13 22 08.664068 -03 52 54.93293
 2018-Nov-15 03:14  m  13 22 08.728962 -03 52 55.57449
 2018-Nov-15 03:15  m  13 22 08.793852 -03 52 56.21609
 2018-Nov-15 03:16  m  13 22 08.858737 -03 52 56.85774
 2018-Nov-15 03:17  m  13 22 08.923616 -03 52 57.49943
 2018-Nov-15 03:18  m  13 22 08.988490 -03 52 58.14116
 2018-Nov-15 03:19  m  13 22 09.053359 -03 52 58.78294
 2018-Nov-15 03:20  m  13 22 09.118222 -03 52 59.42475
 2018-Nov-15 03:21  m  13 22 09.183079 -03 53 00.06662
 2018-Nov-15 03:22  m  13 22 09.247931 -03 53 00.70852
 2018-Nov-15 03:23  m  13 22 09.312776 -03 53 01.35047
 2018-Nov-15 03:24  m  13 22 09.377616 -03 53 01.99246
 2018-Nov-15 03:25  m  13 22 09.442448 -03 53 02.63449
 2018-Nov-15 03:26  m  13 22 09.507275 -03 53 03.27657
 2018-Nov-15 03:27  m  13 22 09.572095 -03 53 03.91868
 2018-Nov-15 03:28  m  13 22 09.636908 -03 53 04.56084
 2018-Nov-15 03:29  m  13 22 09.701714 -03 53 05.20305
 2018-Nov-15 03:30  m  13 22 09.766513 -03 53 05.84529
